[
  {
    "name": "ONEWEB-0616",
    "noradId": "55157",
    "line1": "1 55157U 23004T   26170.95267418  .00000040  00000+0  69661-4 0  9995",
    "line2": "2 55157  87.9133   5.3173 0000940  85.3550 274.7689 13.17649303168065"
  },
  {
    "name": "ONEWEB-0617",
    "noradId": "55158",
    "line1": "1 55158U 23004U   26171.27148059  .00000428  00000+0  11716-2 0  9997",
    "line2": "2 55158  87.8888  20.4546 0002234  84.5653 275.5729 13.11414893166269"
  },
  {
    "name": "ONEWEB-0618",
    "noradId": "55159",
    "line1": "1 55159U 23004V   26170.96850852  .00003359  00000+0  18759-3 0  9995",
    "line2": "2 55159  86.9092 176.5056 0009468 286.8570  73.1631 15.13152592182684"
  },
  {
    "name": "ONEWEB-0619",
    "noradId": "55160",
    "line1": "1 55160U 23004W   26171.28848267  .00000016  00000+0  86222-5 0  9999",
    "line2": "2 55160  87.9142   5.2314 0001855  77.0842 283.0497 13.17648520168007"
  },
  {
    "name": "ONEWEB-0620",
    "noradId": "55161",
    "line1": "1 55161U 23004X   26170.96119541  .00000538  00000+0  14814-2 0  9994",
    "line2": "2 55161  87.8882  20.5248 0001933  93.8989 266.2360 13.11414794166197"
  },
  {
    "name": "ONEWEB-0621",
    "noradId": "55162",
    "line1": "1 55162U 23004Y   26170.60682890 -.00000456  00000+0 -13216-2 0  9994",
    "line2": "2 55162  87.8897  20.5843 0002002  81.2773 278.8581 13.11414993166123"
  },
  {
    "name": "ONEWEB-0622",
    "noradId": "55163",
    "line1": "1 55163U 23004Z   26170.61191809 -.00000514  00000+0 -14871-2 0  9994",
    "line2": "2 55163  87.8895  20.5859 0002554  87.2634 272.8786 13.11415732166115"
  },
  {
    "name": "ONEWEB-0623",
    "noradId": "55164",
    "line1": "1 55164U 23004AA  26171.28340893  .00000063  00000+0  12935-3 0  9995",
    "line2": "2 55164  87.9129   5.2625 0002457  75.5813 284.5591 13.17649799167998"
  },
  {
    "name": "ONEWEB-0624",
    "noradId": "55165",
    "line1": "1 55165U 23004AB  26170.93841892 -.00000046  00000+0 -16249-3 0  9997",
    "line2": "2 55165  87.8927 350.0374 0001799  92.1817 267.9517 13.12930814168432"
  },
  {
    "name": "ONEWEB-0625",
    "noradId": "55166",
    "line1": "1 55166U 23004AC  26171.27329539 -.00000059  00000+0 -18634-3 0  9999",
    "line2": "2 55166  87.9131   5.2603 0001714  87.0102 273.1225 13.17648849167985"
  },
  {
    "name": "ONEWEB-0626",
    "noradId": "55167",
    "line1": "1 55167U 23004AD  26170.95943930  .00000832  00000+0  21090-2 0  9997",
    "line2": "2 55167  87.9132   5.3230 0001982 100.1826 259.9530 13.17650240167946"
  },
  {
    "name": "ONEWEB-0627",
    "noradId": "55168",
    "line1": "1 55168U 23004AE  26170.94760710 -.00000001  00000+0 -36092-4 0  9990",
    "line2": "2 55168  87.9134   5.3251 0002241  79.1586 280.9797 13.17648672167944"
  },
  {
    "name": "ONEWEB-0628",
    "noradId": "55169",
    "line1": "1 55169U 23004AF  26170.92084369 -.00000469  00000+0 -13402-2 0  9994",
    "line2": "2 55169  87.8948 350.1090 0002270  76.8613 283.2769 13.12443881168391"
  },
  {
    "name": "ONEWEB-0629",
    "noradId": "55170",
    "line1": "1 55170U 23004AG  26170.92313413 -.00000036  00000+0 -12687-3 0  9996",
    "line2": "2 55170  87.9130   5.3260 0001835  78.9535 281.1803 13.17648096167943"
  },
  {
    "name": "ONEWEB-0631",
    "noradId": "55171",
    "line1": "1 55171U 23004AH  26171.21242290 -.00000137  00000+0 -38078-3 0  9998",
    "line2": "2 55171  87.9171 334.8335 0002281 100.8736 259.2653 13.18684215170077"
  },
  {
    "name": "ONEWEB-0709",
    "noradId": "55172",
    "line1": "1 55172U 23004AJ  26171.02732841  .00000461  00000+0  12659-2 0  9998",
    "line2": "2 55172  87.8886  20.5138 0001921 113.8142 246.3187 13.11417044166245"
  },
  {
    "name": "ONEWEB-0710",
    "noradId": "55173",
    "line1": "1 55173U 23004AK  26170.93747909  .00000020  00000+0  17739-4 0  9996",
    "line2": "2 55173  87.9131   5.3183 0002007  86.9331 273.2030 13.17650454167941"
  },
  {
    "name": "ONEWEB-0711",
    "noradId": "55174",
    "line1": "1 55174U 23004AL  26170.99848957 -.00000708  00000+0 -20328-2 0  9999",
    "line2": "2 55174  87.8883  20.5072 0002479  79.3064 280.8343 13.11417869166207"
  },
  {
    "name": "ONEWEB-0713",
    "noradId": "55175",
    "line1": "1 55175U 23004AM  26171.01715521  .00000236  00000+0  63059-3 0  9997",
    "line2": "2 55175  87.8888  20.5049 0002187  82.4850 277.6527 13.11418482166199"
  },
  {
    "name": "ONEWEB-0715",
    "noradId": "55176",
    "line1": "1 55176U 23004AN  26171.01205282 -.00000072  00000+0 -23780-3 0  9993",
    "line2": "2 55176  87.8887  20.5066 0002161 104.2918 255.8450 13.11420244166235"
  },
  {
    "name": "ONEWEB-0716",
    "noradId": "55177",
    "line1": "1 55177U 23004AP  26171.00666483  .00000062  00000+0  12548-3 0  9994",
    "line2": "2 55177  87.9132   5.3074 0001612  87.3806 272.7510 13.17650287167950"
  },
  {
    "name": "ONEWEB-0717",
    "noradId": "55178",
    "line1": "1 55178U 23004AQ  26170.98979646  .00000101  00000+0  22751-3 0  9990",
    "line2": "2 55178  87.9144   5.2985 0002450  88.5803 271.5610 13.17649188168008"
  },
  {
    "name": "ONEWEB-0719",
    "noradId": "55179",
    "line1": "1 55179U 23004AR  26170.92398888 -.00000024  00000+0 -96123-4 0  9999",
    "line2": "2 55179  87.9140   5.2921 0001706  83.2325 276.9000 13.17649452167947"
  },
  {
    "name": "ONEWEB-0530",
    "noradId": "55796",
    "line1": "1 55796U 23029A   26171.27172096  .00000029  00000+0  38421-4 0  9991",
    "line2": "2 55796  87.9186 273.8540 0002273  90.3463 269.7931 13.20771595161556"
  },
  {
    "name": "ONEWEB-0534",
    "noradId": "55797",
    "line1": "1 55797U 23029B   26170.80538862  .00000004  00000+0 -22255-4 0  9999",
    "line2": "2 55797  87.9187 273.9476 0001863 100.8703 259.2640 13.20771545161494"
  },
  {
    "name": "ONEWEB-0556",
    "noradId": "55798",
    "line1": "1 55798U 23029C   26171.26665468  .00000017  00000+0  95243-5 0  9995",
    "line2": "2 55798  87.9186 273.8550 0001475  76.9686 283.1612 13.20773642161550"
  },
  {
    "name": "ONEWEB-0562",
    "noradId": "55799",
    "line1": "1 55799U 23029D   26171.25319540  .00000051  00000+0  93161-4 0  9996",
    "line2": "2 55799  87.9186 273.8385 0002185  77.2776 282.8602 13.20770810161559"
  },
  {
    "name": "ONEWEB-0563",
    "noradId": "55800",
    "line1": "1 55800U 23029E   26170.79360814  .00000088  00000+0  18533-3 0  9996",
    "line2": "2 55800  87.9186 273.9606 0001767 104.1781 255.9549 13.20772267161481"
  },
  {
    "name": "ONEWEB-0564",
    "noradId": "55801",
    "line1": "1 55801U 23029F   26171.24142014  .00000125  00000+0  27652-3 0  9992",
    "line2": "2 55801  87.9187 273.8447 0002113  89.7060 270.4316 13.20771191161556"
  },
  {
    "name": "ONEWEB-0638",
    "noradId": "55802",
    "line1": "1 55802U 23029G   26171.28555357 -.00000129  00000+0 -38254-3 0  9991",
    "line2": "2 55802  87.8957 289.1340 0001701  84.3095 275.8229 13.14504203159802"
  },
  {
    "name": "ONEWEB-0639",
    "noradId": "55803",
    "line1": "1 55803U 23029H   26171.29204009  .00000027  00000+0  36261-4 0  9990",
    "line2": "2 55803  87.9173 304.3572 0001460 130.5162 229.6098 13.19725871159310"
  },
  {
    "name": "ONEWEB-0640",
    "noradId": "55804",
    "line1": "1 55804U 23029J   26170.83835311  .00000038  00000+0  68579-4 0  9995",
    "line2": "2 55804  87.8955 289.2140 0001315  88.2680 271.8600 13.14503428159767"
  },
  {
    "name": "ONEWEB-0641",
    "noradId": "55805",
    "line1": "1 55805U 23029K   26171.28729569 -.00000005  00000+0 -44218-4 0  9993",
    "line2": "2 55805  87.9181 304.3473 0001815 105.1488 254.9845 13.19725087159325"
  },
  {
    "name": "ONEWEB-0642",
    "noradId": "55806",
    "line1": "1 55806U 23029L   26171.28256508 -.00000024  00000+0 -92860-4 0  9999",
    "line2": "2 55806  87.9172 304.3601 0001747 126.1056 234.0238 13.19724765159313"
  },
  {
    "name": "ONEWEB-0643",
    "noradId": "55807",
    "line1": "1 55807U 23029M   26171.26493446 -.00000024  00000+0 -98108-4 0  9993",
    "line2": "2 55807  87.8959 289.1160 0002017 120.7148 239.4181 13.14503392159793"
  },
  {
    "name": "ONEWEB-0644",
    "noradId": "55808",
    "line1": "1 55808U 23029N   26171.27782150 -.00000001  00000+0 -34626-4 0  9998",
    "line2": "2 55808  87.9172 304.3623 0001799 110.4168 249.7158 13.19724468159310"
  },
  {
    "name": "ONEWEB-0645",
    "noradId": "55809",
    "line1": "1 55809U 23029P   26171.29993310  .00000068  00000+0  13846-3 0  9994",
    "line2": "2 55809  87.9170 304.3550 0001454 104.1973 255.9321 13.19725076159317"
  },
  {
    "name": "ONEWEB-0646",
    "noradId": "55810",
    "line1": "1 55810U 23029Q   26171.31731670  .00000104  00000+0  22796-3 0  9993",
    "line2": "2 55810  87.9173 304.3517 0001844 108.5940 251.5393 13.19725637159303"
  },
  {
    "name": "ONEWEB-0648",
    "noradId": "55811",
    "line1": "1 55811U 23029R   26171.30931992 -.00003248  00000+0 -87961-2 0  9990",
    "line2": "2 55811  87.8966 289.0811 0001435 152.3679 207.7527 13.14517439159802"
  },
  {
    "name": "ONEWEB-0649",
    "noradId": "55812",
    "line1": "1 55812U 23029S   26170.88767788  .00000038  00000+0  62992-4 0  9994",
    "line2": "2 55812  87.9173 304.4350 0001627 103.8176 256.3138 13.19725080159288"
  },
  {
    "name": "ONEWEB-0650",
    "noradId": "55813",
    "line1": "1 55813U 23029T   26171.11041233 -.00003730  00000+0 -93574-2 0  9994",
    "line2": "2 55813  87.9161 304.3934 0001347 147.7409 212.3806 13.19697409159285"
  },
  {
    "name": "ONEWEB-0652",
    "noradId": "55814",
    "line1": "1 55814U 23029U   26171.29028634 -.00000060  00000+0 -19735-3 0  9995",
    "line2": "2 55814  87.8965 289.0921 0002079  98.2515 261.8851 13.14500763159777"
  },
  {
    "name": "ONEWEB-0653",
    "noradId": "55815",
    "line1": "1 55815U 23029V   26171.27443478 -.00000169  00000+0 -48985-3 0  9990",
    "line2": "2 55815  87.8968 289.0930 0001901  98.2067 261.9278 13.14503506159802"
  }
]